[{"OBJECT_NAME":"CSTP 1.2 (STC 1.2)","OBJECT_ID":"2023-091W","EPOCH":"2026-03-09T23:12:27.821952","MEAN_MOTION":15.2718076,"ECCENTRICITY":0.00204388,"INCLINATION":97.5258,"RA_OF_ASC_NODE":134.3262,"ARG_OF_PERICENTER":84.9592,"MEAN_ANOMALY":275.3979,"EPHEMERIS_TYPE":0,"CLASSIFICATION_TYPE":"U","NORAD_CAT_ID":57186,"ELEMENT_SET_NO":999,"REV_AT_EPOCH":14930,"BSTAR":0.00043035718,"MEAN_MOTION_DOT":0.00011466,"MEAN_MOTION_DDOT":0},{"OBJECT_NAME":"STARLINK-32508","OBJECT_ID":"2024-224V","EPOCH":"2026-03-09T07:43:38.338464","MEAN_MOTION":15.27569462,"ECCENTRICITY":0.00010576,"INCLINATION":43.0002,"RA_OF_ASC_NODE":160.1881,"ARG_OF_PERICENTER":252.6792,"MEAN_ANOMALY":107.3944,"EPHEMERIS_TYPE":0,"CLASSIFICATION_TYPE":"U","NORAD_CAT_ID":62158,"ELEMENT_SET_NO":999,"REV_AT_EPOCH":7242,"BSTAR":0.00088221279,"MEAN_MOTION_DOT":0.00024086,"MEAN_MOTION_DDOT":0}]
